CCSDS_OMM_VERS = 2.0
CREATION_DATE  = 
ORIGINATOR     = 

OBJECT_NAME    = UNKNOWN
OBJECT_ID      = 
CENTER_NAME    = EARTH
REF_FRAME      = TEME
TIME_SYSTEM    = UTC
MEAN_ELEMENT_THEORY = SGP/SGP4

EPOCH          = 2026-01-03T06:08:09.899232
MEAN_MOTION    = 14.63330687
ECCENTRICITY   = .00931
INCLINATION    = 98.2501
RA_OF_ASC_NODE = 296.9787
ARG_OF_PERICENTER = 349.0544
MEAN_ANOMALY   = 10.8630

EPHEMERIS_TYPE = 0
CLASSIFICATION_TYPE = U
NORAD_CAT_ID   = 89146
ELEMENT_SET_NO = 999
REV_AT_EPOCH   = 63202
BSTAR          = .20884E-2
MEAN_MOTION_DOT = .11443E-3
MEAN_MOTION_DDOT = 0

CCSDS_OMM_VERS = 2.0
CREATION_DATE  = 
ORIGINATOR     = 

OBJECT_NAME    = UNKNOWN
OBJECT_ID      = 
CENTER_NAME    = EARTH
REF_FRAME      = TEME
TIME_SYSTEM    = UTC
MEAN_ELEMENT_THEORY = SGP/SGP4

EPOCH          = 2026-01-05T11:53:57.180480
MEAN_MOTION    = 15.45606622
ECCENTRICITY   = .0030275
INCLINATION    = 97.6537
RA_OF_ASC_NODE = 27.3787
ARG_OF_PERICENTER = 344.6037
MEAN_ANOMALY   = 15.4287

EPHEMERIS_TYPE = 0
CLASSIFICATION_TYPE = U
NORAD_CAT_ID   = 89161
ELEMENT_SET_NO = 999
REV_AT_EPOCH   = 55224
BSTAR          = .32974E-2
MEAN_MOTION_DOT = .164451E-2
MEAN_MOTION_DDOT = 0

CCSDS_OMM_VERS = 2.0
CREATION_DATE  = 
ORIGINATOR     = 

OBJECT_NAME    = UNKNOWN
OBJECT_ID      = 
CENTER_NAME    = EARTH
REF_FRAME      = TEME
TIME_SYSTEM    = UTC
MEAN_ELEMENT_THEORY = SGP/SGP4

EPOCH          = 2026-01-05T06:28:23.513376
MEAN_MOTION    = 14.47224038
ECCENTRICITY   = .0288793
INCLINATION    = 82.0627
RA_OF_ASC_NODE = 199.8550
ARG_OF_PERICENTER = 208.8851
MEAN_ANOMALY   = 149.6097

EPHEMERIS_TYPE = 0
CLASSIFICATION_TYPE = U
NORAD_CAT_ID   = 89172
ELEMENT_SET_NO = 999
REV_AT_EPOCH   = 60529
BSTAR          = .32448E-2
MEAN_MOTION_DOT = .2013E-3
MEAN_MOTION_DDOT = 0

CCSDS_OMM_VERS = 2.0
CREATION_DATE  = 
ORIGINATOR     = 

OBJECT_NAME    = UNKNOWN
OBJECT_ID      = 
CENTER_NAME    = EARTH
REF_FRAME      = TEME
TIME_SYSTEM    = UTC
MEAN_ELEMENT_THEORY = SGP/SGP4

EPOCH          = 2026-01-04T23:15:05.768928
MEAN_MOTION    = 13.73730693
ECCENTRICITY   = .0033717
INCLINATION    = 82.9202
RA_OF_ASC_NODE = 251.8972
ARG_OF_PERICENTER = 78.2288
MEAN_ANOMALY   = 282.2646

EPHEMERIS_TYPE = 0
CLASSIFICATION_TYPE = U
NORAD_CAT_ID   = 89177
ELEMENT_SET_NO = 999
REV_AT_EPOCH   = 6601
BSTAR          = .12007E-3
MEAN_MOTION_DOT = .128E-5
MEAN_MOTION_DDOT = 0

CCSDS_OMM_VERS = 2.0
CREATION_DATE  = 
ORIGINATOR     = 

OBJECT_NAME    = UNKNOWN
OBJECT_ID      = 
CENTER_NAME    = EARTH
REF_FRAME      = TEME
TIME_SYSTEM    = UTC
MEAN_ELEMENT_THEORY = SGP/SGP4

EPOCH          = 2026-01-04T17:13:58.577376
MEAN_MOTION    = 13.81609744
ECCENTRICITY   = .0131016
INCLINATION    = 99.2197
RA_OF_ASC_NODE = 280.2713
ARG_OF_PERICENTER = 95.2246
MEAN_ANOMALY   = 266.3873

EPHEMERIS_TYPE = 0
CLASSIFICATION_TYPE = U
NORAD_CAT_ID   = 89183
ELEMENT_SET_NO = 999
REV_AT_EPOCH   = 61014
BSTAR          = .70462E-3
MEAN_MOTION_DOT = .76E-5
MEAN_MOTION_DDOT = 0

CCSDS_OMM_VERS = 2.0
CREATION_DATE  = 
ORIGINATOR     = 

OBJECT_NAME    = UNKNOWN
OBJECT_ID      = 
CENTER_NAME    = EARTH
REF_FRAME      = TEME
TIME_SYSTEM    = UTC
MEAN_ELEMENT_THEORY = SGP/SGP4

EPOCH          = 2026-01-04T10:36:03.121056
MEAN_MOTION    = 14.82389827
ECCENTRICITY   = .0012396
INCLINATION    = 98.3867
RA_OF_ASC_NODE = 235.2343
ARG_OF_PERICENTER = 50.7898
MEAN_ANOMALY   = 309.4413

EPHEMERIS_TYPE = 0
CLASSIFICATION_TYPE = U
NORAD_CAT_ID   = 89184
ELEMENT_SET_NO = 999
REV_AT_EPOCH   = 49553
BSTAR          = .3777E-2
MEAN_MOTION_DOT = .30354E-3
MEAN_MOTION_DDOT = 0

CCSDS_OMM_VERS = 2.0
CREATION_DATE  = 
ORIGINATOR     = 

OBJECT_NAME    = UNKNOWN
OBJECT_ID      = 
CENTER_NAME    = EARTH
REF_FRAME      = TEME
TIME_SYSTEM    = UTC
MEAN_ELEMENT_THEORY = SGP/SGP4

EPOCH          = 2026-01-05T10:16:40.965024
MEAN_MOTION    = 13.91617547
ECCENTRICITY   = .0228474
INCLINATION    = 98.7786
RA_OF_ASC_NODE = 242.3270
ARG_OF_PERICENTER = 61.5376
MEAN_ANOMALY   = 300.8596

EPHEMERIS_TYPE = 0
CLASSIFICATION_TYPE = U
NORAD_CAT_ID   = 89213
ELEMENT_SET_NO = 999
REV_AT_EPOCH   = 45596
BSTAR          = .47935E-3
MEAN_MOTION_DOT = .712E-5
MEAN_MOTION_DDOT = 0

CCSDS_OMM_VERS = 2.0
CREATION_DATE  = 
ORIGINATOR     = 

OBJECT_NAME    = UNKNOWN
OBJECT_ID      = 
CENTER_NAME    = EARTH
REF_FRAME      = TEME
TIME_SYSTEM    = UTC
MEAN_ELEMENT_THEORY = SGP/SGP4

EPOCH          = 2026-01-05T06:33:58.235616
MEAN_MOTION    = 9.25287625
ECCENTRICITY   = .2830472
INCLINATION    = 62.4798
RA_OF_ASC_NODE = 332.6601
ARG_OF_PERICENTER = 102.8571
MEAN_ANOMALY   = 289.9790

EPHEMERIS_TYPE = 0
CLASSIFICATION_TYPE = U
NORAD_CAT_ID   = 89251
ELEMENT_SET_NO = 999
REV_AT_EPOCH   = 37536
BSTAR          = .57235E-2
MEAN_MOTION_DOT = .9749E-4
MEAN_MOTION_DDOT = 0

CCSDS_OMM_VERS = 2.0
CREATION_DATE  = 
ORIGINATOR     = 

OBJECT_NAME    = UNKNOWN
OBJECT_ID      = 
CENTER_NAME    = EARTH
REF_FRAME      = TEME
TIME_SYSTEM    = UTC
MEAN_ELEMENT_THEORY = SGP/SGP4

EPOCH          = 2025-12-27T17:32:18.070080
MEAN_MOTION    = 14.43144445
ECCENTRICITY   = .0014011
INCLINATION    = 98.1546
RA_OF_ASC_NODE = 355.5013
ARG_OF_PERICENTER = 111.3049
MEAN_ANOMALY   = 248.9639

EPHEMERIS_TYPE = 0
CLASSIFICATION_TYPE = U
NORAD_CAT_ID   = 89261
ELEMENT_SET_NO = 999
REV_AT_EPOCH   = 53597
BSTAR          = .3375E-3
MEAN_MOTION_DOT = .1094E-4
MEAN_MOTION_DDOT = 0

CCSDS_OMM_VERS = 2.0
CREATION_DATE  = 
ORIGINATOR     = 

OBJECT_NAME    = UNKNOWN
OBJECT_ID      = 
CENTER_NAME    = EARTH
REF_FRAME      = TEME
TIME_SYSTEM    = UTC
MEAN_ELEMENT_THEORY = SGP/SGP4

EPOCH          = 2026-01-05T04:38:27.286368
MEAN_MOTION    = 9.04855422
ECCENTRICITY   = .2860355
INCLINATION    = 84.3017
RA_OF_ASC_NODE = 97.7576
ARG_OF_PERICENTER = 315.2935
MEAN_ANOMALY   = 40.7497

EPHEMERIS_TYPE = 0
CLASSIFICATION_TYPE = U
NORAD_CAT_ID   = 89304
ELEMENT_SET_NO = 999
REV_AT_EPOCH   = 44052
BSTAR          = .40454E-1
MEAN_MOTION_DOT = .37551E-3
MEAN_MOTION_DDOT = 0

CCSDS_OMM_VERS = 2.0
CREATION_DATE  = 
ORIGINATOR     = 

OBJECT_NAME    = UNKNOWN
OBJECT_ID      = 
CENTER_NAME    = EARTH
REF_FRAME      = TEME
TIME_SYSTEM    = UTC
MEAN_ELEMENT_THEORY = SGP/SGP4

EPOCH          = 2026-01-04T23:54:05.468832
MEAN_MOTION    = 12.96254383
ECCENTRICITY   = .0029129
INCLINATION    = 90.2431
RA_OF_ASC_NODE = 7.8658
ARG_OF_PERICENTER = 203.1604
MEAN_ANOMALY   = 156.8205

EPHEMERIS_TYPE = 0
CLASSIFICATION_TYPE = U
NORAD_CAT_ID   = 89349
ELEMENT_SET_NO = 999
REV_AT_EPOCH   = 48176
BSTAR          = .1823E-2
MEAN_MOTION_DOT = .528E-5
MEAN_MOTION_DDOT = 0

CCSDS_OMM_VERS = 2.0
CREATION_DATE  = 
ORIGINATOR     = 

OBJECT_NAME    = UNKNOWN
OBJECT_ID      = 
CENTER_NAME    = EARTH
REF_FRAME      = TEME
TIME_SYSTEM    = UTC
MEAN_ELEMENT_THEORY = SGP/SGP4

EPOCH          = 2026-01-02T20:32:40.692192
MEAN_MOTION    = 13.62911881
ECCENTRICITY   = .0040013
INCLINATION    = 100.4805
RA_OF_ASC_NODE = 24.6942
ARG_OF_PERICENTER = 76.9322
MEAN_ANOMALY   = 283.6279

EPHEMERIS_TYPE = 0
CLASSIFICATION_TYPE = U
NORAD_CAT_ID   = 89379
ELEMENT_SET_NO = 999
REV_AT_EPOCH   = 58365
BSTAR          = .76744E-2
MEAN_MOTION_DOT = .5989E-4
MEAN_MOTION_DDOT = 0

CCSDS_OMM_VERS = 2.0
CREATION_DATE  = 
ORIGINATOR     = 

OBJECT_NAME    = UNKNOWN
OBJECT_ID      = 
CENTER_NAME    = EARTH
REF_FRAME      = TEME
TIME_SYSTEM    = UTC
MEAN_ELEMENT_THEORY = SGP/SGP4

EPOCH          = 2026-01-04T20:59:18.635136
MEAN_MOTION    = 12.01507933
ECCENTRICITY   = .0223101
INCLINATION    = 102.3755
RA_OF_ASC_NODE = 336.8309
ARG_OF_PERICENTER = 85.4615
MEAN_ANOMALY   = 335.3354

EPHEMERIS_TYPE = 0
CLASSIFICATION_TYPE = U
NORAD_CAT_ID   = 89395
ELEMENT_SET_NO = 999
REV_AT_EPOCH   = 52752
BSTAR          = -.10369E-2
MEAN_MOTION_DOT = -.132E-5
MEAN_MOTION_DDOT = 0

CCSDS_OMM_VERS = 2.0
CREATION_DATE  = 
ORIGINATOR     = 

OBJECT_NAME    = UNKNOWN
OBJECT_ID      = 
CENTER_NAME    = EARTH
REF_FRAME      = TEME
TIME_SYSTEM    = UTC
MEAN_ELEMENT_THEORY = SGP/SGP4

EPOCH          = 2026-01-05T06:47:34.781280
MEAN_MOTION    = 12.98774025
ECCENTRICITY   = .0028843
INCLINATION    = 90.2451
RA_OF_ASC_NODE = 6.3324
ARG_OF_PERICENTER = 154.1672
MEAN_ANOMALY   = 221.1220

EPHEMERIS_TYPE = 0
CLASSIFICATION_TYPE = U
NORAD_CAT_ID   = 89403
ELEMENT_SET_NO = 999
REV_AT_EPOCH   = 48088
BSTAR          = .28665E-2
MEAN_MOTION_DOT = .856E-5
MEAN_MOTION_DDOT = 0

CCSDS_OMM_VERS = 2.0
CREATION_DATE  = 
ORIGINATOR     = 

OBJECT_NAME    = UNKNOWN
OBJECT_ID      = 
CENTER_NAME    = EARTH
REF_FRAME      = TEME
TIME_SYSTEM    = UTC
MEAN_ELEMENT_THEORY = SGP/SGP4

EPOCH          = 2026-01-05T09:16:19.837344
MEAN_MOTION    = 9.16249236
ECCENTRICITY   = .2858644
INCLINATION    = 83.9973
RA_OF_ASC_NODE = 147.9083
ARG_OF_PERICENTER = 355.3617
MEAN_ANOMALY   = 2.5266

EPHEMERIS_TYPE = 0
CLASSIFICATION_TYPE = U
NORAD_CAT_ID   = 89484
ELEMENT_SET_NO = 999
REV_AT_EPOCH   = 35760
BSTAR          = .28548E-1
MEAN_MOTION_DOT = .41436E-3
MEAN_MOTION_DDOT = 0

CCSDS_OMM_VERS = 2.0
CREATION_DATE  = 
ORIGINATOR     = 

OBJECT_NAME    = UNKNOWN
OBJECT_ID      = 
CENTER_NAME    = EARTH
REF_FRAME      = TEME
TIME_SYSTEM    = UTC
MEAN_ELEMENT_THEORY = SGP/SGP4

EPOCH          = 2026-01-02T10:09:03.968640
MEAN_MOTION    = 14.16386298
ECCENTRICITY   = .0079842
INCLINATION    = 99.0243
RA_OF_ASC_NODE = 76.5713
ARG_OF_PERICENTER = 341.1524
MEAN_ANOMALY   = 18.6698

EPHEMERIS_TYPE = 0
CLASSIFICATION_TYPE = U
NORAD_CAT_ID   = 89493
ELEMENT_SET_NO = 999
REV_AT_EPOCH   = 46687
BSTAR          = .23588E-2
MEAN_MOTION_DOT = .479E-4
MEAN_MOTION_DDOT = 0

